[{"OBJECT_NAME":"SKYSAT-A","OBJECT_ID":"2013-066C","EPOCH":"2026-03-09T23:11:31.147872","MEAN_MOTION":15.12354605,"ECCENTRICITY":0.00202509,"INCLINATION":97.395,"RA_OF_ASC_NODE":121.5014,"ARG_OF_PERICENTER":299.3966,"MEAN_ANOMALY":60.5243,"EPHEMERIS_TYPE":0,"CLASSIFICATION_TYPE":"U","NORAD_CAT_ID":39418,"ELEMENT_SET_NO":999,"REV_AT_EPOCH":67348,"BSTAR":0.0002547658,"MEAN_MOTION_DOT":4.374e-5,"MEAN_MOTION_DDOT":0},{"OBJECT_NAME":"ELECTRON KICK STAGE R\/B","OBJECT_ID":"2023-196B","EPOCH":"2026-03-09T10:54:03.246336","MEAN_MOTION":15.12760744,"ECCENTRICITY":0.00189263,"INCLINATION":42.0179,"RA_OF_ASC_NODE":242.1679,"ARG_OF_PERICENTER":295.0915,"MEAN_ANOMALY":64.7951,"EPHEMERIS_TYPE":0,"CLASSIFICATION_TYPE":"U","NORAD_CAT_ID":58579,"ELEMENT_SET_NO":999,"REV_AT_EPOCH":12282,"BSTAR":0.00048326039,"MEAN_MOTION_DOT":8.466e-5,"MEAN_MOTION_DDOT":0}]
